{"type":"FeatureCollection","features":[{"type":"Feature","properties":{"shopname":"Williams Fresh Cafe"},"geometry":{"coordinates":[-79.82850887282936,43.343474008723774],"type":"Point"}},{"type":"Feature","properties":{"addr":"3341 Fairview"},"geometry":{"coordinates":[-79.78598813008524,43.35499416398426],"type":"Point"}},{"type":"Feature","properties":{"loc":"Fairview at Appleby"},"geometry":{"coordinates":[-79.76234907721623,43.371977933983516],"type":"Point"}},{"type":"Feature","properties":{"loc":"Lakeside Village plaza"},"geometry":{"coordinates":[-79.73211169854541,43.367921019965195],"type":"Point"}},{"type":"Feature","properties":{"shop":"Vintage Iron bikes"},"geometry":{"coordinates":[-79.79971668428207,43.34516546920412],"type":"Point"}},{"type":"Feature","properties":{"shop":"Childcare"},"geometry":{"coordinates":[-79.83079639899046,43.32358855607228],"type":"Point"}},{"type":"Feature","properties":{"shopname":"Next Door Social Space"},"geometry":{"coordinates":[-79.83069736194409,43.32260871172278],"type":"Point"}},{"type":"Feature","properties":{"addr":"558 Plains Rd E","loc":"Plaza with convenience store and bike shop"},"geometry":{"coordinates":[-79.83376282943696,43.320692187241065],"type":"Point"}},{"type":"Feature","properties":{"loc":"Cafe and other shops"},"geometry":{"coordinates":[-79.840544127869,43.315783420164905],"type":"Point"}},{"type":"Feature","properties":{"shopname":"Easterbrooks"},"geometry":{"coordinates":[-79.8748223796023,43.28910713248595],"type":"Point"}},{"type":"Feature","properties":{"type":"Stall conversion","loc":"Guelph at New plaza"},"geometry":{"coordinates":[-79.78531469209754,43.33937248070018],"type":"Point"}},{"type":"Feature","properties":{"shopname":"Bulk Barn on Fairview"},"geometry":{"coordinates":[-79.78473009818904,43.354199787221546],"type":"Point"}},{"type":"Feature","properties":{"type":"Stall conversion","shopname":"Marilu's Market","loc":"New at Walkers plaza"},"geometry":{"coordinates":[-79.76906610224134,43.35398134615599],"type":"Point"},"id":12},{"type":"Feature","properties":{"loc":"4155 Fairview","note":"space constrained","alternative":"at transit bus stop platform"},"geometry":{"coordinates":[-79.77556853193894,43.364621530742596],"type":"Point"},"id":13},{"type":"Feature","properties":{"loc":"Upper Middle at Walkers plza","desc":"Pub, convenience store, cafe, pharmacy","note":"Often bikes locked to random infra here"},"geometry":{"coordinates":[-79.8060977389667,43.37826279237777],"type":"Point"},"id":14},{"type":"Feature","properties":{"loc":"FreshCo on Upper Middle at Walkers","note":"There's already bike rack around the rim in front of shops, but they're old and cramped. Consider upgrading to stall conversion.","type":"stall conversion"},"geometry":{"coordinates":[-79.8076338236834,43.37892102886144],"type":"Point"},"id":15},{"type":"Feature","properties":{"type":"stall conversion","note":"Nearest bike parking is on the other side of road","loc":"Plaza at Upper Middle and Appleby has many small shops"},"geometry":{"coordinates":[-79.79166026838807,43.39377822368934],"type":"Point"},"id":16},{"type":"Feature","properties":{"note":"lots of space","type":"stall conversion","loc":"Appleby at Dundas"},"geometry":{"coordinates":[-79.80599366537434,43.40601308158983],"type":"Point"},"id":17},{"type":"Feature","properties":{"type":"stall conversion","loc":"Toys R Us"},"geometry":{"coordinates":[-79.80805690116615,43.408408915294785],"type":"Point"},"id":18},{"type":"Feature","properties":{"note":"these shops are over 600m from nearest bike parking, across appleby at Walmart","loc":"Harrison Ct plaza"},"geometry":{"coordinates":[-79.81376573828113,43.41214262129145],"type":"Point"},"id":19},{"type":"Feature","properties":{"note":"over 450m from nearest bike parking, and that's at the school","loc":"plaza at Palladium Way and Walkers"},"geometry":{"coordinates":[-79.82869559710777,43.39656809197291],"type":"Point"},"id":20},{"type":"Feature","properties":{"note":"lots of space","loc":"Dunas and Walkers"},"geometry":{"coordinates":[-79.82355294593827,43.389694564156315],"type":"Point"},"id":21},{"type":"Feature","properties":{"type":"stall conversion","loc":"Plaza at Brant and Upper Middle","note":"large number of small shops"},"geometry":{"coordinates":[-79.84219170532316,43.356483448998006],"type":"Point"},"id":22},{"type":"Feature","properties":{"note":"parking lot is cramped, possible space along walkway","loc":"pharmacy at Upper Middle and Brant"},"geometry":{"coordinates":[-79.8441580173582,43.35750440848821],"type":"Point"},"id":23},{"type":"Feature","properties":{"loc":"Kerns Rd at Four Seasons"},"geometry":{"coordinates":[-79.83823270271414,43.340898774383646],"type":"Point"},"id":24},{"type":"Feature","properties":{"note":"lots of commercial here"},"geometry":{"coordinates":[-79.77501419616024,43.38549508406217],"type":"Point"},"id":25}]}